STARLINK-33606          
1 63421U 25065Y   26166.52845343  .00015389  00000+0  56766-3 0  9997
2 63421  43.0009 274.4312 0001554 281.4078  78.6599 15.27575228 67801
STARLINK-33686          
1 63422U 25065Z   26164.64251828  .00012218  00000+0  45262-3 0  9995
2 63422  43.0058 285.2183 0001044 261.7838  98.2895 15.27590829 67510
STARLINK-33675          
1 63423U 25065AA  26164.61039654  .00020670  00000+0  75829-3 0  9997
2 63423  43.0113 284.9824 0001265 116.9833 243.1148 15.27592491 67511
STARLINK-33655          
1 63424U 25065AB  26166.03877315  .00015855  00000+0  58431-3 0  9999
2 63424  42.9964 277.6291 0000389 208.4232 151.6598 15.27586401 67726
STARLINK-33608          
1 63425U 25065AC  26166.01306500  .00040472  00000+0  14707-2 0  9991
2 63425  42.9979 277.4256 0000835 276.0909  83.9848 15.27613883 67720
STARLINK-33615          
1 63426U 25065AD  26166.03491894  .00014941  00000+0  55130-3 0  9993
2 63426  43.0020 277.6083 0000727 246.2080 113.8696 15.27583301 67724
STARLINK-33682          
1 63433U 25069A   26166.36581918  .00033719  00000+0  61109-3 0  9995
2 63433  53.1602  44.2128 0001244  72.2644 287.8500 15.49337513 68426
STARLINK-33710          
1 63434U 25069B   26166.27213086  .00062628  00000+0  11244-2 0  9999
2 63434  53.1598  44.3413 0001072  73.9923 286.1204 15.49327254 68419
STARLINK-33733          
1 63435U 25069C   26165.95178681  .00053570  00000+0  96515-3 0  9996
2 63435  53.1602  45.8963 0000817 100.4425 259.6676 15.49294540 68364
STARLINK-33638          
1 63436U 25069D   26165.95103308  .00050365  00000+0  90723-3 0  9995
2 63436  53.1602  45.8894 0000950  92.3863 267.7255 15.49326438 68366
STARLINK-33726          
1 63437U 25069E   26165.93648483  .00057039  00000+0  10233-2 0  9994
2 63437  53.1608  45.8032 0000947  68.9941 291.1169 15.49388236 68313
STARLINK-33681          
1 63438U 25069F   26166.39070815  .00049512  00000+0  89228-3 0  9992
2 63438  53.1599  43.6589 0001213  79.2542 280.8604 15.49320638 68428
STARLINK-33730          
1 63439U 25069G   26166.00004630  .00043865  00000+0  79334-3 0  9995
2 63439  53.1588  45.8931 0001146  80.0396  75.2500 15.49272244  5762
STARLINK-33743          
1 63440U 25069H   26166.38219762  .00039116  00000+0  70728-3 0  9994
2 63440  53.1591  44.3168 0000887  81.7489 278.3620 15.49331840 68313
STARLINK-33715          
1 63441U 25069J   26165.93333339  .00080553  00000+0  14376-2 0  9999
2 63441  53.1597  45.7738 0000955 104.6624 255.4491 15.49386996 68369
STARLINK-33762          
1 63442U 25069K   26166.38489201  .00026754  00000+0  48720-3 0  9994
2 63442  53.1597  43.6191 0001305  52.5711 307.5417 15.49323135 68439
STARLINK-33753          
1 63443U 25069L   26163.85801849  .00085037  00000+0  15022-2 0  9997
2 63443  53.1596  55.5808 0000700 104.6608 255.4479 15.49652355 68032
STARLINK-33747          
1 63444U 25069M   26166.35752083 -.00246674  00000+0 -46942-2 0  9994
2 63444  53.1607  44.1623 0001597 132.5917 227.5227 15.48535734 68360
STARLINK-33659          
1 63445U 25069N   26165.95608590  .00062238  00000+0  11178-2 0  9996
2 63445  53.1590  45.9184 0000962  91.6012 268.5107 15.49320096 68310
STARLINK-33746          
1 63446U 25069P   26166.50002315 -.02553017  00000+0 -79679-1 0  9995
2 63446  53.1602  43.2094 0002175 101.4674 106.7334 15.36713403  5947
STARLINK-33799          
1 63447U 25069Q   26165.96157773  .00021158  00000+0  72413-3 0  9997
2 63447  53.1601  50.9347 0001213  85.4758 274.6381 15.30213759 68184
STARLINK-33797          
1 63448U 25069R   26166.50002315 -.01820786  00000+0 -42944-1 0  9991
2 63448  53.1592  43.5138 0000834 109.5950 307.5616 15.44465486  5943
STARLINK-33798          
1 63449U 25069S   26166.50002315 -.01921658  00000+0 -49322-1 0  9999
2 63449  53.1586  43.4491 0000900 105.6577 335.6834 15.42156885  5946
STARLINK-33736          
1 63450U 25069T   26166.35502836  .00038832  00000+0  70233-3 0  9994
2 63450  53.1594  44.1429 0001006  90.7713 269.3411 15.49327653 68370
STARLINK-33740          
1 63451U 25069U   26166.39133799  .00056447  00000+0  10145-2 0  9994
2 63451  53.1602  43.6539 0001146  89.5793 270.5347 15.49341900 68324
STARLINK-33763          
1 63452U 25069V   26166.50002315  .00049183  00000+0  14588-2 0  9991
2 63452  53.1599  43.2882 0001228  92.8173  70.6129 15.34366553  5847
STARLINK-33784          
1 63453U 25069W   26165.96052353  .00024886  00000+0  84948-3 0  9999
2 63453  53.1600  50.9230 0001153  95.8206 264.2926 15.30202597 68297
STARLINK-33768          
1 63454U 25069X   26166.50002315  .00051754  00000+0  15347-2 0  9994
2 63454  53.1595  43.3089 0001159 152.0149 359.8921 15.34351957  5945
STARLINK-33761          
1 63455U 25069Y   26166.50002315 -.01434799  00000+0 -45378-1 0  9998
2 63455  53.1602  43.1045 0001236  82.5836 173.3605 15.35397509  5886
STARLINK-33737          
1 63456U 25069Z   26166.36212983  .00064374  00000+0  11549-2 0  9996
2 63456  53.1597  44.1673 0000601  82.5035 277.6042 15.49335140 68312
