OBJECT_NAME,OBJECT_ID,EPOCH,MEAN_MOTION,ECCENTRICITY,INCLINATION,RA_OF_ASC_NODE,ARG_OF_PERICENTER,MEAN_ANOMALY,EPHEMERIS_TYPE,CLASSIFICATION_TYPE,NORAD_CAT_ID,ELEMENT_SET_NO,REV_AT_EPOCH,BSTAR,MEAN_MOTION_DOT,MEAN_MOTION_DDOT
STARLINK-33606,2025-065Y,2026-06-15T12:40:58.376352,15.27575228,.0001554,43.0009,274.4312,281.4078,78.6599,0,U,63421,999,6780,.56766E-3,.15389E-3,0
STARLINK-33686,2025-065Z,2026-06-13T15:25:13.579392,15.27590829,.0001044,43.0058,285.2183,261.7838,98.2895,0,U,63422,999,6751,.45262E-3,.12218E-3,0
STARLINK-33675,2025-065AA,2026-06-13T14:38:58.261056,15.27592491,.0001265,43.0113,284.9824,116.9833,243.1148,0,U,63423,999,6751,.75829E-3,.2067E-3,0
STARLINK-33655,2025-065AB,2026-06-15T00:55:50.000160,15.27586401,.00003891,42.9964,277.6291,208.4232,151.6598,0,U,63424,999,6772,.58430907E-3,.15855E-3,0
STARLINK-33608,2025-065AC,2026-06-15T00:18:48.816000,15.27613883,.00008353,42.9979,277.4256,276.0909,83.9848,0,U,63425,999,6772,.1470662E-2,.40472E-3,0
STARLINK-33615,2025-065AD,2026-06-15T00:50:16.996416,15.27583301,.00007272,43.0020,277.6083,246.2080,113.8696,0,U,63426,999,6772,.55129688E-3,.14941E-3,0
STARLINK-33682,2025-069A,2026-06-15T08:46:46.777152,15.49337513,.0001244,53.1602,44.2128,72.2644,287.8500,0,U,63433,999,6842,.61109E-3,.33719E-3,0
STARLINK-33710,2025-069B,2026-06-15T06:31:52.106304,15.49327254,.0001072,53.1598,44.3413,73.9923,286.1204,0,U,63434,999,6841,.11244E-2,.62628E-3,0
STARLINK-33733,2025-069C,2026-06-14T22:50:34.380384,15.49294540,.0000817,53.1602,45.8963,100.4425,259.6676,0,U,63435,999,6836,.96515E-3,.5357E-3,0
STARLINK-33638,2025-069D,2026-06-14T22:49:29.258112,15.49326438,.000095,53.1602,45.8894,92.3863,267.7255,0,U,63436,999,6836,.90723E-3,.50365E-3,0
STARLINK-33726,2025-069E,2026-06-14T22:28:32.289312,15.49388236,.0000947,53.1608,45.8032,68.9941,291.1169,0,U,63437,999,6831,.10233E-2,.57039E-3,0
STARLINK-33681,2025-069F,2026-06-15T09:22:37.184160,15.49320638,.0001213,53.1599,43.6589,79.2542,280.8604,0,U,63438,999,6842,.89228E-3,.49512E-3,0
STARLINK-33730,2025-069G,2026-06-15T00:00:04.000320,15.49272244,.00011464,53.1588,45.8931,80.0396,75.2500,0,U,63439,999,576,.79334313E-3,.43865E-3,0
STARLINK-33743,2025-069H,2026-06-15T09:10:21.874368,15.49331840,.0000887,53.1591,44.3168,81.7489,278.3620,0,U,63440,999,6831,.70728E-3,.39116E-3,0
STARLINK-33715,2025-069J,2026-06-14T22:24:00.004896,15.49386996,.0000955,53.1597,45.7738,104.6624,255.4491,0,U,63441,999,6836,.14376E-2,.80553E-3,0
STARLINK-33762,2025-069K,2026-06-15T09:14:14.669664,15.49323135,.0001305,53.1597,43.6191,52.5711,307.5417,0,U,63442,999,6843,.4872E-3,.26754E-3,0
STARLINK-33753,2025-069L,2026-06-12T20:35:32.797536,15.49652355,.00007006,53.1596,55.5808,104.6608,255.4479,0,U,63443,999,6803,.15021833E-2,.85037E-3,0
STARLINK-33747,2025-069M,2026-06-15T08:34:49.799712,15.48535734,.0001597,53.1607,44.1623,132.5917,227.5227,0,U,63444,999,6836,-.46942E-2,-.246674E-2,0
STARLINK-33659,2025-069N,2026-06-14T22:56:45.821760,15.49320096,.0000962,53.1590,45.9184,91.6012,268.5107,0,U,63445,999,6831,.11178E-2,.62238E-3,0
STARLINK-33746,2025-069P,2026-06-15T12:00:02.000160,15.36713403,.0002175,53.1602,43.2094,101.4674,106.7334,0,U,63446,999,594,-.79679E-1,-.2553017E-1,0
STARLINK-33799,2025-069Q,2026-06-14T23:04:40.315872,15.30213759,.0001213,53.1601,50.9347,85.4758,274.6381,0,U,63447,999,6818,.72413E-3,.21158E-3,0
STARLINK-33797,2025-069R,2026-06-15T12:00:02.000160,15.44465486,.0000834,53.1592,43.5138,109.5950,307.5616,0,U,63448,999,594,-.42944E-1,-.1820786E-1,0
STARLINK-33798,2025-069S,2026-06-15T12:00:02.000160,15.42156885,.00009,53.1586,43.4491,105.6577,335.6834,0,U,63449,999,594,-.49322E-1,-.1921658E-1,0
STARLINK-33736,2025-069T,2026-06-15T08:31:14.450304,15.49327653,.0001006,53.1594,44.1429,90.7713,269.3411,0,U,63450,999,6837,.70233E-3,.38832E-3,0
STARLINK-33740,2025-069U,2026-06-15T09:23:31.602336,15.49341900,.0001146,53.1602,43.6539,89.5793,270.5347,0,U,63451,999,6832,.10145E-2,.56447E-3,0
STARLINK-33763,2025-069V,2026-06-15T12:00:02.000160,15.34366553,.0001228,53.1599,43.2882,92.8173,70.6129,0,U,63452,999,584,.14588E-2,.49183E-3,0
STARLINK-33784,2025-069W,2026-06-14T23:03:09.232992,15.30202597,.0001153,53.1600,50.9230,95.8206,264.2926,0,U,63453,999,6829,.84948E-3,.24886E-3,0
STARLINK-33768,2025-069X,2026-06-15T12:00:02.000160,15.34351957,.0001159,53.1595,43.3089,152.0149,359.8921,0,U,63454,999,594,.15347E-2,.51754E-3,0
STARLINK-33761,2025-069Y,2026-06-15T12:00:02.000160,15.35397509,.0001236,53.1602,43.1045,82.5836,173.3605,0,U,63455,999,588,-.45378E-1,-.1434799E-1,0
STARLINK-33737,2025-069Z,2026-06-15T08:41:28.017312,15.49335140,.0000601,53.1597,44.1673,82.5035,277.6042,0,U,63456,999,6831,.11549E-2,.64374E-3,0
